{"type": "FeatureCollection", "features": [ {"type": "Feature", "properties": {"norad_id": 37867, "name": "COSMOS 2476 (744)", "group": "gnss", "lat": 44.28908004274059, "lon": 105.79553377460249, "alt_km": 19186.688665441772, "timestamp": "2025-12-18T08:58:43.652940+00:00", "meta": {"OBJECT_NAME": "COSMOS 2476 (744)", "OBJECT_ID": "2011-064A", "EPOCH": "2025-12-17T08:37:38.728128", "MEAN_MOTION": 2.13103706, "ECCENTRICITY": 0.00243783, "INCLINATION": 65.1645, "RA_OF_ASC_NODE": 79.0153, "ARG_OF_PERICENTER": 234.8774, "MEAN_ANOMALY": 116.9996, "EPHEMERIS_TYPE": 0, "CLASSIFICATION_TYPE": "U", "NORAD_CAT_ID": 37867, "ELEMENT_SET_NO": 999, "REV_AT_EPOCH": 10988, "BSTAR": 0, "MEAN_MOTION_DOT": -4.8e-07, "MEAN_MOTION_DDOT": 0}, "tle": {"line1": "1 37867U 11064A   25351.35947602 -.00000048  00000+0  00000+0 0  9996", "line2": "2 37867  65.1645  79.0153 0024378 234.8774 116.9996  2.13103706109884"}}, "geometry": {"type": "Point", "coordinates": [105.79553377460249, 44.28908004274059]}}, {"type": "Feature", "properties": {"norad_id": 37868, "name": "COSMOS 2477 (745)", "group": "gnss", "lat": -45.0306918059756, "lon": -73.37540904494713, "alt_km": 19081.255824486296, "timestamp": "2025-12-18T08:58:43.652953+00:00", "meta": {"OBJECT_NAME": "COSMOS 2477 (745)", "OBJECT_ID": "2011-064B", "EPOCH": "2025-12-17T02:26:26.820384", "MEAN_MOTION": 2.13102893, "ECCENTRICITY": 0.0021195, "INCLINATION": 65.1716, "RA_OF_ASC_NODE": 79.1012, "ARG_OF_PERICENTER": 234.7168, "MEAN_ANOMALY": 100.3174, "EPHEMERIS_TYPE": 0, "CLASSIFICATION_TYPE": "U", "NORAD_CAT_ID": 37868, "ELEMENT_SET_NO": 999, "REV_AT_EPOCH": 10987, "BSTAR": 0, "MEAN_MOTION_DOT": -5e-07, "MEAN_MOTION_DDOT": 0}, "tle": {"line1": "1 37868U 11064B   25351.10169931 -.00000050  00000+0  00000+0 0  9994", "line2": "2 37868  65.1716  79.1012 0021195 234.7168 100.3174  2.13102893109879"}}, "geometry": {"type": "Point", "coordinates": [-73.37540904494713, -45.0306918059756]}}, {"type": "Feature", "properties": {"norad_id": 37869, "name": "COSMOS 2475 (743)", "group": "gnss", "lat": -6.245877859951804, "lon": -98.01407644942692, "alt_km": 19099.407137240865, "timestamp": "2025-12-18T08:58:43.652972+00:00", "meta": {"OBJECT_NAME": "COSMOS 2475 (743)", "OBJECT_ID": "2011-064C", "EPOCH": "2025-12-16T17:15:16.173216", "MEAN_MOTION": 2.1310159, "ECCENTRICITY": 0.00263578, "INCLINATION": 65.1784, "RA_OF_ASC_NODE": 79.1342, "ARG_OF_PERICENTER": 248.7608, "MEAN_ANOMALY": 108.5583, "EPHEMERIS_TYPE": 0, "CLASSIFICATION_TYPE": "U", "NORAD_CAT_ID": 37869, "ELEMENT_SET_NO": 999, "REV_AT_EPOCH": 10987, "BSTAR": 0, "MEAN_MOTION_DOT": -5.2e-07, "MEAN_MOTION_DDOT": 0}, "tle": {"line1": "1 37869U 11064C   25350.71893719 -.00000052  00000+0  00000+0 0  9991", "line2": "2 37869  65.1784  79.1342 0026357 248.7608 108.5583  2.13101590109877"}}, "geometry": {"type": "Point", "coordinates": [-98.01407644942692, -6.245877859951804]}}, {"type": "Feature", "properties": {"norad_id": 37948, "name": "BEIDOU-2 IGSO-5 (C10)", "group": "gnss", "lat": 29.48268798675185, "lon": -55.699000860161455, "alt_km": 36240.42751879264, "timestamp": "2025-12-18T08:58:43.652984+00:00", "meta": {"OBJECT_NAME": "BEIDOU-2 IGSO-5 (C10)", "OBJECT_ID": "2011-073A", "EPOCH": "2025-12-17T16:24:35.912736", "MEAN_MOTION": 1.00290385, "ECCENTRICITY": 0.01100136, "INCLINATION": 48.0109, "RA_OF_ASC_NODE": 273.7976, "ARG_OF_PERICENTER": 222.3587, "MEAN_ANOMALY": 289.8191, "EPHEMERIS_TYPE": 0, "CLASSIFICATION_TYPE": "U", "NORAD_CAT_ID": 37948, "ELEMENT_SET_NO": 999, "REV_AT_EPOCH": 5131, "BSTAR": 0, "MEAN_MOTION_DOT": -1.81e-06, "MEAN_MOTION_DDOT": 0}, "tle": {"line1": "1 37948U 11073A   25351.68374899 -.00000181  00000+0  00000+0 0  9992", "line2": "2 37948  48.0109 273.7976 0110013 222.3587 289.8191  1.00290385 51317"}}, "geometry": {"type": "Point", "coordinates": [-55.699000860161455, 29.48268798675185]}}, {"type": "Feature", "properties": {"norad_id": 37951, "name": "LUCH 5A (SDCM/PRN 140)", "group": "gnss", "lat": -6.088783070092955, "lon": 29.355390458049506, "alt_km": 35799.75439135337, "timestamp": "2025-12-18T08:58:43.652999+00:00", "meta": {"OBJECT_NAME": "LUCH 5A (SDCM/PRN 140)", "OBJECT_ID": "2011-074B", "EPOCH": "2025-12-17T22:40:56.797248", "MEAN_MOTION": 1.0026899, "ECCENTRICITY": 0.00051, "INCLINATION": 8.2929, "RA_OF_ASC_NODE": 76.5065, "ARG_OF_PERICENTER": 188.5436, "MEAN_ANOMALY": 329.094, "EPHEMERIS_TYPE": 0, "CLASSIFICATION_TYPE": "U", "NORAD_CAT_ID": 37951, "ELEMENT_SET_NO": 999, "REV_AT_EPOCH": 5123, "BSTAR": 0, "MEAN_MOTION_DOT": -3.1e-07, "MEAN_MOTION_DDOT": 0}, "tle": {"line1": "1 37951U 11074B   25351.94510182 -.00000031  00000+0  00000+0 0  9997", "line2": "2 37951   8.2929  76.5065 0005100 188.5436 329.0940  1.00268990 51230"}}, "geometry": {"type": "Point", "coordinates": [29.355390458049506, -6.088783070092955]}}, {"type": "Feature", "properties": {"norad_id": 38091, "name": "BEIDOU-2 G5 (C05)", "group": "gnss", "lat": -1.5842005249992257, "lon": -79.38031682813325, "alt_km": 35736.06840034937, "timestamp": "2025-12-18T08:58:43.653011+00:00", "meta": {"OBJECT_NAME": "BEIDOU-2 G5 (C05)", "OBJECT_ID": "2012-008A", "EPOCH": "2025-12-17T20:12:47.726784", "MEAN_MOTION": 1.00268007, "ECCENTRICITY": 0.0012979, "INCLINATION": 3.1217, "RA_OF_ASC_NODE": 70.6937, "ARG_OF_PERICENTER": 231.0033, "MEAN_ANOMALY": 147.0186, "EPHEMERIS_TYPE": 0, "CLASSIFICATION_TYPE": "U", "NORAD_CAT_ID": 38091, "ELEMENT_SET_NO": 999, "REV_AT_EPOCH": 5055, "BSTAR": 0, "MEAN_MOTION_DOT": 7.9e-07, "MEAN_MOTION_DDOT": 0}, "tle": {"line1": "1 38091U 12008A   25351.84221906  .00000079  00000+0  00000+0 0  9994", "line2": "2 38091   3.1217  70.6937 0012979 231.0033 147.0186  1.00268007 50555"}}, "geometry": {"type": "Point", "coordinates": [-79.38031682813325, -1.5842005249992257]}}, {"type": "Feature", "properties": {"norad_id": 38250, "name": "BEIDOU-2 M3 (C11)", "group": "gnss", "lat": 55.72601980615228, "lon": 47.800999045978116, "alt_km": 21589.521420530255, "timestamp": "2025-12-18T08:58:43.653023+00:00", "meta": {"OBJECT_NAME": "BEIDOU-2 M3 (C11)", "OBJECT_ID": "2012-018A", "EPOCH": "2025-12-17T03:50:10.506912", "MEAN_MOTION": 1.86229968, "ECCENTRICITY": 0.00242614, "INCLINATION": 55.9161, "RA_OF_ASC_NODE": 311.0085, "ARG_OF_PERICENTER": 274.7282, "MEAN_ANOMALY": 84.9799, "EPHEMERIS_TYPE": 0, "CLASSIFICATION_TYPE": "U", "NORAD_CAT_ID": 38250, "ELEMENT_SET_NO": 999, "REV_AT_EPOCH": 9255, "BSTAR": 0, "MEAN_MOTION_DOT": -9.2e-07, "MEAN_MOTION_DDOT": 0}, "tle": {"line1": "1 38250U 12018A   25351.15984383 -.00000092  00000+0  00000+0 0  9997", "line2": "2 38250  55.9161 311.0085 0024261 274.7282  84.9799  1.86229968 92550"}}, "geometry": {"type": "Point", "coordinates": [47.800999045978116, 55.72601980615228]}}, {"type": "Feature", "properties": {"norad_id": 38251, "name": "BEIDOU-2 M4 (C12)", "group": "gnss", "lat": 32.57161954678044, "lon": 104.4615069326871, "alt_km": 21556.736784586778, "timestamp": "2025-12-18T08:58:43.653035+00:00", "meta": {"OBJECT_NAME": "BEIDOU-2 M4 (C12)", "OBJECT_ID": "2012-018B", "EPOCH": "2025-12-17T02:12:20.463264", "MEAN_MOTION": 1.8622963, "ECCENTRICITY": 0.00154606, "INCLINATION": 55.8177, "RA_OF_ASC_NODE": 310.2392, "ARG_OF_PERICENTER": 278.1113, "MEAN_ANOMALY": 81.6986, "EPHEMERIS_TYPE": 0, "CLASSIFICATION_TYPE": "U", "NORAD_CAT_ID": 38251, "ELEMENT_SET_NO": 999, "REV_AT_EPOCH": 9255, "BSTAR": 0, "MEAN_MOTION_DOT": -9.2e-07, "MEAN_MOTION_DDOT": 0}, "tle": {"line1": "1 38251U 12018B   25351.09190351 -.00000092  00000+0  00000+0 0  9995", "line2": "2 38251  55.8177 310.2392 0015460 278.1113  81.6986  1.86229630 92559"}}, "geometry": {"type": "Point", "coordinates": [104.4615069326871, 32.57161954678044]}}, {"type": "Feature", "properties": {"norad_id": 38652, "name": "SES-5 (EGNOS/PRN 136)", "group": "gnss", "lat": -0.0768249922337846, "lon": -133.1338042548873, "alt_km": 35781.14824330333, "timestamp": "2025-12-18T08:58:43.653047+00:00", "meta": {"OBJECT_NAME": "SES-5 (EGNOS/PRN 136)", "OBJECT_ID": "2012-036A", "EPOCH": "2025-12-17T18:29:07.902240", "MEAN_MOTION": 1.00268121, "ECCENTRICITY": 0.00018174, "INCLINATION": 0.057, "RA_OF_ASC_NODE": 306.4923, "ARG_OF_PERICENTER": 320.0276, "MEAN_ANOMALY": 102.3851, "EPHEMERIS_TYPE": 0, "CLASSIFICATION_TYPE": "U", "NORAD_CAT_ID": 38652, "ELEMENT_SET_NO": 999, "REV_AT_EPOCH": 4263, "BSTAR": 0, "MEAN_MOTION_DOT": 5.8e-07, "MEAN_MOTION_DDOT": 0}, "tle": {"line1": "1 38652U 12036A   25351.77023035  .00000058  00000+0  00000+0 0  9990", "line2": "2 38652   0.0570 306.4923 0001817 320.0276 102.3851  1.00268121 42638"}}, "geometry": {"type": "Point", "coordinates": [-133.1338042548873, -0.0768249922337846]}}, {"type": "Feature", "properties": {"norad_id": 38775, "name": "BEIDOU-2 M6 (C14)", "group": "gnss", "lat": -21.87369205443893, "lon": 53.42850142184736, "alt_km": 21499.842498961723, "timestamp": "2025-12-18T08:58:43.653059+00:00", "meta": {"OBJECT_NAME": "BEIDOU-2 M6 (C14)", "OBJECT_ID": "2012-050B", "EPOCH": "2025-12-16T19:16:00.374304", "MEAN_MOTION": 1.86230897, "ECCENTRICITY": 0.00113573, "INCLINATION": 56.3818, "RA_OF_ASC_NODE": 68.9326, "ARG_OF_PERICENTER": 343.3915, "MEAN_ANOMALY": 16.5942, "EPHEMERIS_TYPE": 0, "CLASSIFICATION_TYPE": "U", "NORAD_CAT_ID": 38775, "ELEMENT_SET_NO": 999, "REV_AT_EPOCH": 8991, "BSTAR": 0, "MEAN_MOTION_DOT": -7.7e-07, "MEAN_MOTION_DDOT": 0}, "tle": {"line1": "1 38775U 12050B   25350.80278211 -.00000077  00000+0  00000+0 0  9995", "line2": "2 38775  56.3818  68.9326 0011357 343.3915  16.5942  1.86230897 89910"}}, "geometry": {"type": "Point", "coordinates": [53.42850142184736, -21.87369205443893]}}]}